{
    "links": {
        "self": "http://www.neowsapp.com/rest/v1/neo/3147006?api_key=iIulBulltgU6a56xZRHN4H3l9WmuAYTsLGpBGhQ2"
    },
    "id": "3147006",
    "neo_reference_id": "3147006",
    "name": "(2003 AA83)",
    "designation": "2003 AA83",
    "nasa_jpl_url": "http://ssd.jpl.nasa.gov/sbdb.cgi?sstr=3147006",
    "absolute_magnitude_h": 21.841,
    "estimated_diameter": {
        "kilometers": {
            "estimated_diameter_min": 0.1138557521,
            "estimated_diameter_max": 0.2545892014
        },
        "meters": {
            "estimated_diameter_min": 113.8557521352,
            "estimated_diameter_max": 254.5892014037
        },
        "miles": {
            "estimated_diameter_min": 0.0707466626,
            "estimated_diameter_max": 0.1581943467
        },
        "feet": {
            "estimated_diameter_min": 373.5425058353,
            "estimated_diameter_max": 835.2664355335
        }
    },
    "is_potentially_hazardous_asteroid": false,
    "close_approach_data": [
        {
            "close_approach_date": "2003-01-25",
            "close_approach_date_full": "2003-Jan-25 21:57",
            "epoch_date_close_approach": 1043531820000,
            "relative_velocity": {
                "kilometers_per_second": "22.5296263492",
                "kilometers_per_hour": "81106.6548572208",
                "miles_per_hour": "50396.5211805881"
            },
            "miss_distance": {
                "astronomical": "0.0809331422",
                "lunar": "31.4829923158",
                "kilometers": "12107425.685527114",
                "miles": "7523205.4653136132"
            },
            "orbiting_body": "Earth"
        },
        {
            "close_approach_date": "2003-04-05",
            "close_approach_date_full": "2003-Apr-05 14:27",
            "epoch_date_close_approach": 1049552820000,
            "relative_velocity": {
                "kilometers_per_second": "26.4752485423",
                "kilometers_per_hour": "95310.8947523974",
                "miles_per_hour": "59222.4834643438"
            },
            "miss_distance": {
                "astronomical": "0.091298221",
                "lunar": "35.515007969",
                "kilometers": "13658019.39638927",
                "miles": "8486699.719421126"
            },
            "orbiting_body": "Venus"
        }
    ],
    "orbital_data": {
        "orbit_id": "8",
        "orbit_determination_date": "2017-04-06 09:14:24",
        "first_observation_date": "2003-01-13",
        "last_observation_date": "2003-01-19",
        "data_arc_in_days": 6,
        "observations_used": 20,
        "orbit_uncertainty": "9",
        "minimum_orbit_intersection": ".0661476",
        "jupiter_tisserand_invariant": "2.992",
        "epoch_osculation": "2452654.5",
        "eccentricity": ".7772618215368301",
        "semi_major_axis": "2.435160602311388",
        "inclination": "6.764859390825237",
        "ascending_node_longitude": "88.55326444437546",
        "orbital_period": "1388.001195311793",
        "perihelion_distance": ".5424032368241142",
        "perihelion_argument": "126.427374882428",
        "aphelion_distance": "4.327917967798661",
        "perihelion_time": "2452709.708860801457",
        "mean_anomaly": "345.6807112589987",
        "mean_motion": ".2593657708768266",
        "equinox": "J2000",
        "orbit_class": {
            "orbit_class_type": "APO",
            "orbit_class_description": "Near-Earth asteroid orbits which cross the Earth’s orbit similar to that of 1862 Apollo",
            "orbit_class_range": "a (semi-major axis) > 1.0 AU; q (perihelion) < 1.017 AU"
        }
    },
    "is_sentry_object": false
}